NORAD_CAT_ID,OBJECT_NAME,OBJECT_TYPE,EPOCH,MEAN_MOTION,ECCENTRICITY,INCLINATION,RA_OF_ASC_NODE,ARG_OF_PERICENTER,MEAN_ANOMALY,BSTAR,MEAN_MOTION_DOT,MEAN_MOTION_DDOT,TLE_LINE0,TLE_LINE1,TLE_LINE2,SEMIMAJOR_AXIS,PERIOD,APOGEE,PERIGEE,DECAYED
52632.0,STARLINK-3995,PAYLOAD,2022-12-20 16:28:45,15.08860165,0.0002486,53.2174,143.9162,39.441,320.6762,0.00023324,3.428e-05,0.0,0 STARLINK-3995,1 52632U 22052AL  22354.68663705  .00003428  00000-0  23324-3 0  9990,2 52632  53.2174 143.9162 0002486  39.4410 320.6762 15.08860165 33988,6917.819,95.436,541.404,537.964,0.0
52632.0,STARLINK-3995,PAYLOAD,2022-12-21 16:19:32,15.08842951,0.0002492,53.2172,139.4562,38.0729,322.0438,-0.00010467,-1.954e-05,0.0,0 STARLINK-3995,1 52632U 22052AL  22355.68024238 -.00001954  00000-0 -10467-3 0  9991,2 52632  53.2172 139.4562 0002492  38.0729 322.0438 15.08842951 34132,6917.871,95.437,541.46,538.012,0.0
52632.0,STARLINK-3995,PAYLOAD,2022-12-22 11:24:10,15.08843754,0.0002519,53.2185,135.8888,36.1763,323.9399,-1.8334e-05,-5.8e-06,0.0,0 STARLINK-3995,1 52632U 22052AL  22356.47512256 -.00000580  00000-0 -18334-4 0  9997,2 52632  53.2185 135.8888 0002519  36.1763 323.9399 15.08843754 33883,6917.869000000002,95.437,541.477,537.991,0.0
52632.0,STARLINK-3995,PAYLOAD,2022-12-22 19:21:06,15.0884473,0.000256,53.2186,134.4019,36.3061,323.8105,-5.2337e-05,-1.121e-05,0.0,0 STARLINK-3995,1 52632U 22052AL  22356.80632304 -.00001121  00000-0 -52337-4 0  9994,2 52632  53.2186 134.4019 0002560  36.3061 323.8105 15.08844730 33939,6917.866,95.437,541.502,537.96,0.0
52632.0,STARLINK-3995,PAYLOAD,2022-12-22 20:56:29,15.08845228,0.0002554,53.2185,134.1046,35.9668,324.1495,-3.3861999999999995e-05,-8.27e-06,0.0,0 STARLINK-3995,1 52632U 22052AL  22356.87256204 -.00000827  00000-0 -33862-4 0  9996,2 52632  53.2185 134.1046 0002554  35.9668 324.1495 15.08845228 34318,6917.864000000001,95.437,541.496,537.9630000000002,0.0
52632.0,STARLINK-3995,PAYLOAD,2022-12-23 09:39:34,15.08832808,0.0002548,53.2187,131.7257,36.808,323.3087,7.5505e-05,9.13e-06,0.0,0 STARLINK-3995,1 52632U 22052AL  22357.40248781  .00000913  00000-0  75505-4 0  9991,2 52632  53.2187 131.7257 0002548  36.8080 323.3087 15.08832808 34394,6917.901999999999,95.438,541.53,538.005,0.0
52632.0,STARLINK-3995,PAYLOAD,2022-12-23 12:50:21,15.08830958,0.0002534,53.2185,131.1308,36.5668,323.5497,1.7787e-05,-5e-08,0.0,0 STARLINK-3995,1 52632U 22052AL  22357.53497106 -.00000005  00000-0  17787-4 0  9993,2 52632  53.2185 131.1308 0002534  36.5668 323.5497 15.08830958 34040,6917.908,95.438,541.526,538.02,0.0
52632.0,STARLINK-3995,PAYLOAD,2022-12-23 16:01:07,15.08834675,0.0002563,53.2185,130.5362,34.6505,325.4654,4.1262e-05,3.68e-06,0.0,0 STARLINK-3995,1 52632U 22052AL  22357.66744863  .00000368  00000-0  41262-4 0  9998,2 52632  53.2185 130.5362 0002563  34.6505 325.4654 15.08834675 34062,6917.897,95.438,541.535,537.989,0.0
52632.0,STARLINK-3995,PAYLOAD,2022-12-24 11:05:44,15.088401500000002,0.0002546,53.2185,126.9679,33.3128,326.8024,0.00012131,1.643e-05,0.0,0 STARLINK-3995,1 52632U 22052AL  22358.46232367  .00001643  00000-0  12131-3 0  9997,2 52632  53.2185 126.9679 0002546  33.3128 326.8024 15.08840150 34184,6917.88,95.438,541.506,537.984,0.0
52632.0,STARLINK-3995,PAYLOAD,2022-12-24 15:51:54,15.08839164,0.00026,53.2185,126.0757,34.0458,326.07,9.002600000000001e-05,1.145e-05,0.0,0 STARLINK-3995,1 52632U 22052AL  22358.66104582  .00001145  00000-0  90026-4 0  9993,2 52632  53.2185 126.0757 0002600  34.0458 326.0700 15.08839164 34587,6917.8830000000025,95.438,541.547,537.9490000000002,0.0
52632.0,STARLINK-3995,PAYLOAD,2022-12-25 09:21:09,15.08836592,0.0002542,53.2185,122.8056,35.0154,325.1005,7.0827e-05,8.39e-06,0.0,0 STARLINK-3995,1 52632U 22052AL  22359.38968901  .00000839  00000-0  70827-4 0  9992,2 52632  53.2185 122.8056 0002542  35.0154 325.1005 15.08836592 34324,6917.891,95.438,541.514,537.997,0.0
52632.0,STARLINK-3995,PAYLOAD,2022-12-25 17:18:05,15.08834413,0.0002735,53.2191,121.3173,33.1133,327.003,4.5325e-05,4.33e-06,0.0,0 STARLINK-3995,1 52632U 22052AL  22359.72089205  .00000433  00000-0  45325-4 0  9996,2 52632  53.2191 121.3173 0002735  33.1133 327.0030 15.08834413 34740,6917.897,95.438,541.655,537.87,0.0
52632.0,STARLINK-3995,PAYLOAD,2022-12-26 07:36:33,15.08834633,0.0002673,53.2185,118.6441,30.0293,330.0852,6.3832e-05,7.27e-06,0.0,0 STARLINK-3995,1 52632U 22052AL  22360.31705133  .00000727  00000-0  63832-4 0  9997,2 52632  53.2185 118.6441 0002673  30.0293 330.0852 15.08834633 34463,6917.897,95.438,541.611,537.913,0.0
52632.0,STARLINK-3995,PAYLOAD,2022-12-26 15:33:29,15.08834731,0.0002768,53.2191,117.1559,31.5306,328.5852,4.9029e-05,4.92e-06,0.0,0 STARLINK-3995,1 52632U 22052AL  22360.64825358  .00000492  00000-0  49029-4 0  9996,2 52632  53.2191 117.1559 0002768  31.5306 328.5852 15.08834731 34517,6917.896,95.438,541.6759999999998,537.847,0.0
52632.0,STARLINK-3995,PAYLOAD,2022-12-27 15:24:14,15.08853852,0.0002633,53.2186,112.6965,30.9857,329.129,0.00018345,2.634e-05,0.0,0 STARLINK-3995,1 52632U 22052AL  22361.64183412  .00002634  00000-0  18345-3 0  9991,2 52632  53.2186 112.6965 0002633  30.9857 329.1290 15.08853852 35033,6917.8380000000025,95.437,541.525,537.882,0.0
52632.0,STARLINK-3995,PAYLOAD,2022-12-28 07:18:06,15.08845142,0.0002604,53.2189,109.7221,32.8819,327.2335,0.00016494,2.338e-05,0.0,0 STARLINK-3995,1 52632U 22052AL  22362.30423649  .00002338  00000-0  16494-3 0  9998,2 52632  53.2189 109.7221 0002604  32.8819 327.2335 15.08845142 35138,6917.865,95.437,541.531,537.928,0.0
52632.0,STARLINK-3995,PAYLOAD,2022-12-28 10:28:52,15.08838894,0.0002656,53.2197,109.1277,19.2055,340.9037,0.00011833,1.595e-05,0.0,0 STARLINK-3995,1 52632U 22052AL  22362.43672230  .00001595  00000-0  11833-3 0  9990,2 52632  53.2197 109.1277 0002656  19.2055 340.9037 15.08838894 34787,6917.884,95.438,541.586,537.911,0.0
52632.0,STARLINK-3995,PAYLOAD,2022-12-29 00:47:21,15.08829856,0.0002411,53.2192,106.4465,31.8712,328.2425,-0.00015018,-2.677e-05,0.0,0 STARLINK-3995,1 52632U 22052AL  22363.03288812 -.00002677  00000-0 -15018-3 0  9999,2 52632  53.2192 106.4465 0002411  31.8712 328.2425 15.08829856 35240,6917.911,95.438,541.444,538.1080000000002,0.0
52632.0,STARLINK-3995,PAYLOAD,2022-12-29 13:30:27,15.08826488,0.0002589,53.2211,104.0714,31.9419,328.173,-0.00019751,-3.429e-05,0.0,0 STARLINK-3995,1 52632U 22052AL  22363.56282233 -.00003429  00000-0 -19751-3 0  9992,2 52632  53.2211 104.0714 0002589  31.9419 328.1730 15.08826488 34957,6917.922,95.438,541.578,537.996,0.0
52632.0,STARLINK-3995,PAYLOAD,2022-12-29 15:05:51,15.088214,0.0002566,53.2188,103.7736,26.8877,333.2247,-0.00020381,-3.529e-05,0.0,0 STARLINK-3995,1 52632U 22052AL  22363.62906576 -.00003529  00000-0 -20381-3 0  9994,2 52632  53.2188 103.7736 0002566  26.8877 333.2247 15.08821400 35338,6917.937,95.439,541.577,538.0269999999998,0.0
52632.0,STARLINK-3995,PAYLOAD,2022-12-30 10:10:28,15.08824226,0.00028,53.2187,100.2081,23.037,337.0748,0.00012913,1.766e-05,0.0,0 STARLINK-3995,1 52632U 22052AL  22364.42394223  .00001766  00000-0  12913-3 0  9994,2 52632  53.2187 100.2081 0002800  23.0370 337.0748 15.08824226 35450,6917.929,95.439,541.731,537.857,0.0
52632.0,STARLINK-3995,PAYLOAD,2022-12-30 13:21:14,15.0883674,0.0002713,53.219,99.612,23.9378,336.1740000000001,0.00021523,3.138e-05,0.0,0 STARLINK-3995,1 52632U 22052AL  22364.55641377  .00003138  00000-0  21523-3 0  9995,2 52632  53.2190  99.6120 0002713  23.9378 336.1740 15.08836740 35107,6917.89,95.438,541.632,537.879,0.0
52632.0,STARLINK-3995,PAYLOAD,2022-12-30 16:32:00,15.08839414,0.0002741,53.2191,99.0173,24.8194,335.293,0.00023282,3.419e-05,0.0,0 STARLINK-3995,1 52632U 22052AL  22364.68889276  .00003419  00000-0  23282-3 0  9997,2 52632  53.2191  99.0173 0002741  24.8194 335.2930 15.08839414 35491,6917.882,95.438,541.643,537.851,0.0
52632.0,STARLINK-3995,PAYLOAD,2022-12-31 06:50:27,15.08853267,0.0002714,53.2192,96.3417,23.1597,336.9517,0.0004521,6.917e-05,0.0,0 STARLINK-3995,1 52632U 22052AL  22365.28503815  .00006917  00000-0  45210-3 0  9997,2 52632  53.2192  96.3417 0002714  23.1597 336.9517 15.08853267 35583,6917.84,95.437,541.582,537.827,0.0
52632.0,STARLINK-3995,PAYLOAD,2022-12-31 13:12:00,15.08849638,0.0002812,53.2184,95.1522,24.6797,335.4329,0.00039516,6.008e-05,0.0,0 STARLINK-3995,1 52632U 22052AL  22365.55000733  .00006008  00000-0  39516-3 0  9991,2 52632  53.2184  95.1522 0002812  24.6797 335.4329 15.08849638 35251,6917.851,95.437,541.661,537.771,0.0
52632.0,STARLINK-3995,PAYLOAD,2022-12-31 22:44:19,15.08846345,0.000279,53.2185,93.3683,22.0574,338.0538,0.0001534,2.154e-05,0.0,0 STARLINK-3995,1 52632U 22052AL  22365.94744834  .00002154  00000-0  15340-3 0  9998,2 52632  53.2185  93.3683 0002790  22.0574 338.0538 15.08846345 35680,6917.861,95.437,541.656,537.7959999999998,0.0
52632.0,STARLINK-3995,PAYLOAD,2023-01-01 05:05:53,15.08838047,0.0003321,53.2194,92.1786,32.9639,327.156,-5.0318e-05,-1.09e-05,0.0,0 STARLINK-3995,1 52632U 22052AL  23001.21242358 -.00001090  00000-0 -50318-4 0  9995,2 52632  53.2194  92.1786 0003321  32.9639 327.1560 15.08838047 35723,6917.886,95.438,542.049,537.4540000000002,0.0
52632.0,STARLINK-3995,PAYLOAD,2023-01-01 14:38:12,15.08825047,0.0002931,53.2189,90.3947,19.3974,340.7129,-0.00029239,-4.937e-05,0.0,0 STARLINK-3995,1 52632U 22052AL  23001.60986315 -.00004937  00000-0 -29239-3 0  9996,2 52632  53.2189  90.3947 0002931  19.3974 340.7129 15.08825047 35417,6917.926,95.439,541.819,537.763,0.0
52632.0,STARLINK-3995,PAYLOAD,2023-01-02 06:32:02,15.08845703,0.0002887999999999,53.218,87.4203,20.5095,339.6013,-3.0365e-05,-7.72e-06,0.0,0 STARLINK-3995,1 52632U 22052AL  23002.27225232 -.00000772  00000-0 -30365-4 0  9990,2 52632  53.2180  87.4203 0002888  20.5095 339.6013 15.08845703 35880,6917.863,95.437,541.726,537.73,0.0
